{
  "type": "FeatureCollection",
  "features": [
    {
      "type": "Feature",
      "properties": {
        "norad_id": 35245,
        "name": "FENGYUN 1C DEB",
        "group": "fengyun-1c-debris",
        "lat": -19.15835715419609,
        "lon": -98.32115765551195,
        "alt_km": 818.7049355661957,
        "timestamp": "2025-12-25T03:55:56.646026+00:00",
        "meta_object_name": "FENGYUN 1C DEB",
        "meta_object_id": "1999-025DRD",
        "meta_epoch": "2025-12-19T04:23:32.034624",
        "meta_mean_motion": 14.13126838,
        "meta_eccentricity": 0.00598047,
        "meta_inclination": 99.0852,
        "meta_ra_of_asc_node": 78.797,
        "meta_arg_of_pericenter": 252.485,
        "meta_mean_anomaly": 137.634,
        "meta_ephemeris_type": 0,
        "meta_classification_type": "U",
        "meta_norad_cat_id": 35245,
        "meta_element_set_no": 999,
        "meta_rev_at_epoch": 87868,
        "meta_bstar": 0.0014532577,
        "meta_mean_motion_dot": 2.717e-05,
        "meta_mean_motion_ddot": 0,
        "tle_line1": "1 35245U 99025DRD 25353.18300966  .00002717  00000+0  14533-2 0  9999",
        "tle_line2": "2 35245  99.0852  78.7970 0059804 252.4850 137.6340 14.13126838878682"
      },
      "geometry": {
        "type": "Point",
        "coordinates": [
          -98.32115765551195,
          -19.15835715419609
        ]
      }
    },
    {
      "type": "Feature",
      "properties": {
        "norad_id": 36147,
        "name": "FENGYUN 1C DEB",
        "group": "fengyun-1c-debris",
        "lat": 41.52673513372126,
        "lon": -106.76581677928183,
        "alt_km": 1085.5054258015734,
        "timestamp": "2025-12-25T03:55:56.646036+00:00",
        "meta_object_name": "FENGYUN 1C DEB",
        "meta_object_id": "1999-025DRU",
        "meta_epoch": "2025-12-20T21:33:23.692032",
        "meta_mean_motion": 13.46553882,
        "meta_eccentricity": 0.0442924,
        "meta_inclination": 98.5255,
        "meta_ra_of_asc_node": 61.9559,
        "meta_arg_of_pericenter": 242.0095,
        "meta_mean_anomaly": 113.5561,
        "meta_ephemeris_type": 0,
        "meta_classification_type": "U",
        "meta_norad_cat_id": 36147,
        "meta_element_set_no": 999,
        "meta_rev_at_epoch": 60107,
        "meta_bstar": 0.0014721,
        "meta_mean_motion_dot": 1.576e-05,
        "meta_mean_motion_ddot": 0,
        "tle_line1": "1 36147U 99025DRU 25354.89819088  .00001576  00000+0  14721-2 0  9991",
        "tle_line2": "2 36147  98.5255  61.9559 0442924 242.0095 113.5561 13.46553882601070"
      },
      "geometry": {
        "type": "Point",
        "coordinates": [
          -106.76581677928183,
          41.52673513372126
        ]
      }
    },
    {
      "type": "Feature",
      "properties": {
        "norad_id": 36148,
        "name": "FENGYUN 1C DEB",
        "group": "fengyun-1c-debris",
        "lat": 14.82611281315203,
        "lon": -153.52570112224032,
        "alt_km": 835.1020711877882,
        "timestamp": "2025-12-25T03:55:56.646046+00:00",
        "meta_object_name": "FENGYUN 1C DEB",
        "meta_object_id": "1999-025DRV",
        "meta_epoch": "2025-12-19T19:33:59.340096",
        "meta_mean_motion": 13.85003317,
        "meta_eccentricity": 0.02860047,
        "meta_inclination": 98.4226,
        "meta_ra_of_asc_node": 203.9107,
        "meta_arg_of_pericenter": 330.6122,
        "meta_mean_anomaly": 27.9209,
        "meta_ephemeris_type": 0,
        "meta_classification_type": "U",
        "meta_norad_cat_id": 36148,
        "meta_element_set_no": 999,
        "meta_rev_at_epoch": 90342,
        "meta_bstar": 0.0023912593,
        "meta_mean_motion_dot": 3.68e-05,
        "meta_mean_motion_ddot": 0,
        "tle_line1": "1 36148U 99025DRV 25353.81527014  .00003680  00000+0  23913-2 0  9999",
        "tle_line2": "2 36148  98.4226 203.9107 0286004 330.6122  27.9209 13.85003317903422"
      },
      "geometry": {
        "type": "Point",
        "coordinates": [
          -153.52570112224032,
          14.82611281315203
        ]
      }
    },
    {
      "type": "Feature",
      "properties": {
        "norad_id": 36152,
        "name": "FENGYUN 1C DEB",
        "group": "fengyun-1c-debris",
        "lat": -5.561559662667509,
        "lon": -142.08368314954558,
        "alt_km": 798.3362022286647,
        "timestamp": "2025-12-25T03:55:56.646057+00:00",
        "meta_object_name": "FENGYUN 1C DEB",
        "meta_object_id": "1999-025DRZ",
        "meta_epoch": "2025-12-18T08:24:14.818464",
        "meta_mean_motion": 14.17273973,
        "meta_eccentricity": 0.00557903,
        "meta_inclination": 98.7554,
        "meta_ra_of_asc_node": 32.0659,
        "meta_arg_of_pericenter": 196.1632,
        "meta_mean_anomaly": 163.7765,
        "meta_ephemeris_type": 0,
        "meta_classification_type": "U",
        "meta_norad_cat_id": 36152,
        "meta_element_set_no": 999,
        "meta_rev_at_epoch": 64236,
        "meta_bstar": 0.00095568478,
        "meta_mean_motion_dot": 1.917e-05,
        "meta_mean_motion_ddot": 0,
        "tle_line1": "1 36152U 99025DRZ 25352.35017151  .00001917  00000+0  95568-3 0  9995",
        "tle_line2": "2 36152  98.7554  32.0659 0055790 196.1632 163.7765 14.17273973642366"
      },
      "geometry": {
        "type": "Point",
        "coordinates": [
          -142.08368314954558,
          -5.561559662667509
        ]
      }
    },
    {
      "type": "Feature",
      "properties": {
        "norad_id": 36160,
        "name": "FENGYUN 1C DEB",
        "group": "fengyun-1c-debris",
        "lat": -8.723399376515124,
        "lon": 18.415850209921665,
        "alt_km": 821.2676531290708,
        "timestamp": "2025-12-25T03:55:56.646067+00:00",
        "meta_object_name": "FENGYUN 1C DEB",
        "meta_object_id": "1999-025DSH",
        "meta_epoch": "2025-12-12T19:23:25.399104",
        "meta_mean_motion": 14.13217835,
        "meta_eccentricity": 0.0135077,
        "meta_inclination": 98.1387,
        "meta_ra_of_asc_node": 188.429,
        "meta_arg_of_pericenter": 152.2609,
        "meta_mean_anomaly": 208.5855,
        "meta_ephemeris_type": 0,
        "meta_classification_type": "U",
        "meta_norad_cat_id": 36160,
        "meta_element_set_no": 999,
        "meta_rev_at_epoch": 60053,
        "meta_bstar": 0.00034837814,
        "meta_mean_motion_dot": 6.74e-06,
        "meta_mean_motion_ddot": 0,
        "tle_line1": "1 36160U 99025DSH 25346.80793286  .00000674  00000+0  34838-3 0  9999",
        "tle_line2": "2 36160  98.1387 188.4290 0135077 152.2609 208.5855 14.13217835600536"
      },
      "geometry": {
        "type": "Point",
        "coordinates": [
          18.415850209921665,
          -8.723399376515124
        ]
      }
    },
    {
      "type": "Feature",
      "properties": {
        "norad_id": 36163,
        "name": "FENGYUN 1C DEB",
        "group": "fengyun-1c-debris",
        "lat": 34.88165996642536,
        "lon": -162.00313679571047,
        "alt_km": 665.295261139453,
        "timestamp": "2025-12-25T03:55:56.646077+00:00",
        "meta_object_name": "FENGYUN 1C DEB",
        "meta_object_id": "1999-025DSL",
        "meta_epoch": "2025-12-19T12:50:06.955008",
        "meta_mean_motion": 14.59242955,
        "meta_eccentricity": 0.0039086,
        "meta_inclination": 99.0787,
        "meta_ra_of_asc_node": 198.2455,
        "meta_arg_of_pericenter": 50.867,
        "meta_mean_anomaly": 309.5991,
        "meta_ephemeris_type": 0,
        "meta_classification_type": "U",
        "meta_norad_cat_id": 36163,
        "meta_element_set_no": 999,
        "meta_rev_at_epoch": 89286,
        "meta_bstar": 0.0021304,
        "meta_mean_motion_dot": 0.0001012,
        "meta_mean_motion_ddot": 0,
        "tle_line1": "1 36163U 99025DSL 25353.53480272  .00010120  00000+0  21304-2 0  9998",
        "tle_line2": "2 36163  99.0787 198.2455 0039086  50.8670 309.5991 14.59242955892862"
      },
      "geometry": {
        "type": "Point",
        "coordinates": [
          -162.00313679571047,
          34.88165996642536
        ]
      }
    },
    {
      "type": "Feature",
      "properties": {
        "norad_id": 36167,
        "name": "FENGYUN 1C DEB",
        "group": "fengyun-1c-debris",
        "lat": 45.49892801734587,
        "lon": -102.1932481811974,
        "alt_km": 769.824232652325,
        "timestamp": "2025-12-25T03:55:56.646087+00:00",
        "meta_object_name": "FENGYUN 1C DEB",
        "meta_object_id": "1999-025DSQ",
        "meta_epoch": "2025-12-21T23:29:57.430752",
        "meta_mean_motion": 14.49314917,
        "meta_eccentricity": 0.00688049,
        "meta_inclination": 98.8145,
        "meta_ra_of_asc_node": 263.5651,
        "meta_arg_of_pericenter": 216.098,
        "meta_mean_anomaly": 143.5557,
        "meta_ephemeris_type": 0,
        "meta_classification_type": "U",
        "meta_norad_cat_id": 36167,
        "meta_element_set_no": 999,
        "meta_rev_at_epoch": 67413,
        "meta_bstar": 0.00094360862,
        "meta_mean_motion_dot": 3.662e-05,
        "meta_mean_motion_ddot": 0,
        "tle_line1": "1 36167U 99025DSQ 25355.97913693  .00003662  00000+0  94361-3 0  9997",
        "tle_line2": "2 36167  98.8145 263.5651 0068804 216.0980 143.5557 14.49314917674134"
      },
      "geometry": {
        "type": "Point",
        "coordinates": [
          -102.1932481811974,
          45.49892801734587
        ]
      }
    }
  ]
}